KUIPER-00008            
1 63724U 25088A   25223.53919569  .00004567  00000+0  39631-3 0  9992
2 63724  51.8913 325.0469 0011568 111.6626 248.5577 14.98754574 16531
KUIPER-00009            
1 63725U 25088B   25223.58334491 -.00891565  00000+0 -63621-1 0  9991
2 63725  51.8843 317.4253 0011999 133.2484 187.2685 15.06823637  1912
KUIPER-00010            
1 63726U 25088C   25223.55815006  .00015240  00000+0  43088-3 0  9998
2 63726  51.8646 313.5702 0009080 124.4203 235.7643 15.36490291 16311
KUIPER-00011            
1 63727U 25088D   25223.52515820  .00016724  00000+0  47922-3 0  9996
2 63727  51.8587 314.0237 0010427 134.0466 226.1380 15.35982887 16442
KUIPER-00012            
1 63728U 25088E   25223.52193331  .00017443  00000+0  49708-3 0  9999
2 63728  51.8569 313.9887 0010609 135.2306 224.9538 15.36120044 16395
KUIPER-00013            
1 63729U 25088F   25223.58334491  .00007408  00000+0  57461-3 0  9995
2 63729  51.8865 318.2035 0007429  79.0877 223.7948 15.02268960  5171
KUIPER-00014            
1 63730U 25088G   25223.58334491 -.00038965  00000+0 -29210-2 0  9991
2 63730  51.8860 319.2582 0007620 113.9022  97.6533 15.02166098  4748
KUIPER-00015            
1 63731U 25088H   25223.59557464  .00000565  00000+0  10080-3 0  9999
2 63731  51.9008 330.4383 0011444 105.5504 254.6723 14.81140796 16549
